{
    "links": {
        "self": "http://www.neowsapp.com/rest/v1/neo/3250108?api_key=iIulBulltgU6a56xZRHN4H3l9WmuAYTsLGpBGhQ2"
    },
    "id": "3250108",
    "neo_reference_id": "3250108",
    "name": "(2004 QR4)",
    "designation": "2004 QR4",
    "nasa_jpl_url": "http://ssd.jpl.nasa.gov/sbdb.cgi?sstr=3250108",
    "absolute_magnitude_h": 26.9,
    "estimated_diameter": {
        "kilometers": {
            "estimated_diameter_min": 0.0110803882,
            "estimated_diameter_max": 0.0247765013
        },
        "meters": {
            "estimated_diameter_min": 11.0803882126,
            "estimated_diameter_max": 24.7765012606
        },
        "miles": {
            "estimated_diameter_min": 0.0068850319,
            "estimated_diameter_max": 0.0153953994
        },
        "feet": {
            "estimated_diameter_min": 36.3529808636,
            "estimated_diameter_max": 81.2877363957
        }
    },
    "is_potentially_hazardous_asteroid": false,
    "close_approach_data": [
        {
            "close_approach_date": "2004-08-23",
            "close_approach_date_full": "2004-Aug-23 17:48",
            "epoch_date_close_approach": 1093283280000,
            "relative_velocity": {
                "kilometers_per_second": "8.1804487381",
                "kilometers_per_hour": "29449.6154571624",
                "miles_per_hour": "18298.8457822574"
            },
            "miss_distance": {
                "astronomical": "0.0158020778",
                "lunar": "6.1470082642",
                "kilometers": "2363957.180454286",
                "miles": "1468894.8783737068"
            },
            "orbiting_body": "Earth"
        }
    ],
    "orbital_data": {
        "orbit_id": "6",
        "orbit_determination_date": "2017-04-06 09:12:27",
        "first_observation_date": "2004-08-20",
        "last_observation_date": "2004-08-23",
        "data_arc_in_days": 3,
        "observations_used": 14,
        "orbit_uncertainty": "8",
        "minimum_orbit_intersection": ".0057357",
        "jupiter_tisserand_invariant": "3.711",
        "epoch_osculation": "2453238.5",
        "eccentricity": ".4983736609094233",
        "semi_major_axis": "1.966657107795334",
        "inclination": "2.66603043160372",
        "ascending_node_longitude": "149.2144835989234",
        "orbital_period": "1007.375526936849",
        "perihelion_distance": ".9865270052298349",
        "perihelion_argument": "208.9330335040739",
        "aphelion_distance": "2.946787210360833",
        "perihelion_time": "2453263.457490026781",
        "mean_anomaly": "351.0810852860788",
        "mean_motion": ".3573642503453112",
        "equinox": "J2000",
        "orbit_class": {
            "orbit_class_type": "APO",
            "orbit_class_description": "Near-Earth asteroid orbits which cross the Earth’s orbit similar to that of 1862 Apollo",
            "orbit_class_range": "a (semi-major axis) > 1.0 AU; q (perihelion) < 1.017 AU"
        }
    },
    "is_sentry_object": false
}